OBJECT C                
1 57582U 23117C   24150.16902441  .00005362  00000+0  28409-3 0  9991
2 57582  97.4864 222.4863 0010636   8.8728 351.2691 15.15771333 44307
